NOAA 18                 
1 28654U 05018A   26078.80421707  .00000052  00000+0  50419-4 0  9990
2 28654  98.8142 159.7691 0014983  48.4795 311.7660 14.13712883 73685
NOAA 19                 
1 33591U 09005A   26078.78719741  .00000038  00000+0  44016-4 0  9991
2 33591  98.9588 149.5743 0012693 283.9477  76.0283 14.13458696881857
SUOMI NPP               
1 37849U 11061A   26077.76528040  .00000069  00000+0  53756-4 0  9998
2 37849  98.7881  19.2966 0000906 182.5879 177.5292 14.19546120745611
NOAA 20 (JPSS-1)        
1 43013U 17073A   26078.83728147  .00000060  00000+0  49447-4 0  9999
2 43013  98.7704  19.1242 0001611 124.4193 235.7135 14.19538628431797
