[{"OBJECT_NAME":"NOAA 18","OBJECT_ID":"2005-018A","EPOCH":"2026-03-19T19:18:04.354848","MEAN_MOTION":14.13712883,"ECCENTRICITY":0.0014983,"INCLINATION":98.8142,"RA_OF_ASC_NODE":159.7691,"ARG_OF_PERICENTER":48.4795,"MEAN_ANOMALY":311.766,"EPHEMERIS_TYPE":0,"CLASSIFICATION_TYPE":"U","NORAD_CAT_ID":28654,"ELEMENT_SET_NO":999,"REV_AT_EPOCH":7368,"BSTAR":5.0419e-5,"MEAN_MOTION_DOT":5.2e-7,"MEAN_MOTION_DDOT":0},{"OBJECT_NAME":"NOAA 19","OBJECT_ID":"2009-005A","EPOCH":"2026-03-19T18:53:33.856224","MEAN_MOTION":14.13458696,"ECCENTRICITY":0.0012693,"INCLINATION":98.9588,"RA_OF_ASC_NODE":149.5743,"ARG_OF_PERICENTER":283.9477,"MEAN_ANOMALY":76.0283,"EPHEMERIS_TYPE":0,"CLASSIFICATION_TYPE":"U","NORAD_CAT_ID":33591,"ELEMENT_SET_NO":999,"REV_AT_EPOCH":88185,"BSTAR":4.4016e-5,"MEAN_MOTION_DOT":3.8e-7,"MEAN_MOTION_DDOT":0},{"OBJECT_NAME":"SUOMI NPP","OBJECT_ID":"2011-061A","EPOCH":"2026-03-18T18:22:00.226560","MEAN_MOTION":14.1954612,"ECCENTRICITY":9.065e-5,"INCLINATION":98.7881,"RA_OF_ASC_NODE":19.2966,"ARG_OF_PERICENTER":182.5879,"MEAN_ANOMALY":177.5292,"EPHEMERIS_TYPE":0,"CLASSIFICATION_TYPE":"U","NORAD_CAT_ID":37849,"ELEMENT_SET_NO":999,"REV_AT_EPOCH":74561,"BSTAR":5.375558e-5,"MEAN_MOTION_DOT":6.9e-7,"MEAN_MOTION_DDOT":0},{"OBJECT_NAME":"NOAA 20 (JPSS-1)","OBJECT_ID":"2017-073A","EPOCH":"2026-03-19T20:05:41.119008","MEAN_MOTION":14.19538628,"ECCENTRICITY":0.0001611,"INCLINATION":98.7704,"RA_OF_ASC_NODE":19.1242,"ARG_OF_PERICENTER":124.4193,"MEAN_ANOMALY":235.7135,"EPHEMERIS_TYPE":0,"CLASSIFICATION_TYPE":"U","NORAD_CAT_ID":43013,"ELEMENT_SET_NO":999,"REV_AT_EPOCH":43179,"BSTAR":4.9447e-5,"MEAN_MOTION_DOT":6.0e-7,"MEAN_MOTION_DDOT":0}]
